BEESAT-4                
1 41619U 16040W   22146.87161722  .00016155  00000+0  54737-3 0  9997
2 41619  97.2187 198.0839 0009941 183.3721 176.7455 15.30594210317425
CAS-2T & KS-1Q          
1 41847U 16066G   22146.43297052  .00000524  00000+0  89926-4 0  9998
2 41847  98.5517 211.1238 0362738 275.7814  80.2135 14.38556605291185
NAYIF-1 (EO-88)         
1 42017U 17008BX  22146.91231007  .00018557  00000+0  56499-3 0  9999
2 42017  97.2704 213.3470 0003723 334.9615  25.1447 15.34037901293775
ZHUHAI-1 02 (CAS-4B)    
1 42759U 17034B   22146.83208412  .00005610  00000+0  33568-3 0  9994
2 42759  43.0168  91.8646 0007826 162.0713 240.9329 15.11763465273086
ZHUHAI-1 01 (CAS-4A)    
1 42761U 17034D   22146.87074810  .00005595  00000+0  33395-3 0  9994
2 42761  43.0175  90.4539 0008334 164.4204 247.2233 15.11856938273092
MAX VALIER SAT          
1 42778U 17036P   22146.89289898  .00009664  00000+0  37000-3 0  9998
2 42778  97.2073 188.7373 0012098  51.5316 308.7007 15.26683028273611
RADFXSAT (FOX-1B)       
1 43017U 17073E   22146.41826590  .00003040  00000+0  23414-3 0  9996
2 43017  97.6773  41.5104 0247465 259.9561  97.3649 14.81294699243859
FOX-1D (AO-92)          
1 43137U 18004AC  22146.43632505  .00011355  00000+0  40489-3 0  9996
2 43137  97.3689 221.7963 0009198  84.6460 275.5829 15.29022487242979
DIWATA-2B               
1 43678U 18084H   22146.92377650  .00001525  00000+0  15556-3 0  9990
2 43678  97.9667 279.9412 0009798   5.0810 355.0518 14.92140819194645
ES'HAIL 2               
1 43700U 18090A   22146.62547066  .00000143  00000+0  00000+0 0  9999
2 43700   0.0177  49.5441 0001030  22.1880  63.3795  1.00273335 12812
FOX-1CLIFF (AO-95)      
1 43770U 18099N   22146.18918103  .00003428  00000+0  30746-3 0  9993
2 43770  97.6211 213.1171 0013676 356.7367   3.3763 14.96340035189684
ITASAT 1                
1 43786U 18099AE  22146.45217995  .00002623  00000+0  23546-3 0  9997
2 43786  97.6237 214.2796 0014235 347.2262  12.8597 14.96500065189765
JY1SAT (JO-97)          
1 43803U 18099AX  22146.61075144  .00003977  00000+0  35004-3 0  9998
2 43803  97.6214 214.1838 0013994 348.2770  11.8124 14.96982325189805
UWE-4                   
1 43880U 18111E   22146.62625723  .00004644  00000+0  39695-3 0  9995
2 43880  97.6711  53.3169 0013349  42.6845 317.5412 14.98053761186431
NEXUS (FO-99)           
1 43937U 19003F   22146.59282310  .00013657  00000+0  46652-3 0  9991
2 43937  97.1319 180.8004 0019600 227.3617 132.5973 15.30223192186635
PSAT2 (NO-104)          
1 44354U 19036R   22146.79953535  .00088151 -41581-5  83021-3 0  9995
2 44354  28.5247 328.1828 0240517  86.8210 275.9876 15.36918123161344
JAISAT-1                
1 44419U 19038F   22146.67206159  .00009062  00000+0  45946-3 0  9991
2 44419  97.6333 116.6273 0018706 201.4432 158.6019 15.17034088159753
DUCHIFAT-3              
1 44854U 19089C   22146.57253396  .00006209  00000+0  48313-3 0  9995
2 44854  36.9648 230.0500 0008083  34.7988  63.0501 15.00966182134642
CAS-6 (TO-108)          
1 44881U 19093C   22146.76619520  .00001032  00000+0  13749-3 0  9990
2 44881  97.8919 226.2854 0013654 256.2149 103.7532 14.81706923131565
RS-44 & BREEZE-KM R/B   
1 44909U 19096E   22146.76929386 -.00000008  00000+0 -76441-4 0  9991
2 44909  82.5227 244.6778 0217447  10.7469 349.8169 12.79713189112736
ORBITAL FACTORY 2 (OF-2)
1 45113U 19071C   22146.76330013  .00023555  00000+0  50661-3 0  9990
2 45113  51.6372 166.0110 0010530  82.9587 277.2597 15.44475589130020
HUSKYSAT-1 (HO-107)     
1 45119U 19071J   22146.43329441  .00021424  00000+0  47466-3 0  9995
2 45119  51.6375 167.5350 0010486  79.3482 280.8685 15.43657453129965
BY70-2                  
1 45857U 20042B   22146.78681651  .00011971  00000+0  16018-2 0  9990
2 45857  97.9540 223.8382 0011581 178.4352 181.6844 14.79568580102254
SALSAT                  
1 46495U 20068K   22146.41434443  .00002466  00000+0  18052-3 0  9992
2 46495  97.7281  87.7107 0016410 359.5065   0.6142 15.04428224 90878
BY70-3                  
1 46839U 20079N   22146.97028398  .00031207  00000+0  75116-3 0  9994
2 46839  97.1983 219.3570 0006292  59.6475 112.0971 15.41205874 86935
RADFXSAT-2 (AO-109)     
1 47311U 21002C   22146.37523808  .00010317  00000+0  42009-3 0  9991
2 47311  60.6855  85.3368 0012434 309.3532  50.6454 15.24981626 75099
UVSQ-SAT                
1 47438U 21006AB  22146.88858800  .00006988  00000+0  37205-3 0  9995
2 47438  97.4387 206.3432 0011491 358.2506   1.8684 15.15479295 74018
DIY-1 (ARDUIQUBE)       
1 47963U 21022AH  22146.45790787  .00017386  00000+0  98638-3 0  9999
2 47963  97.5349  48.0810 0016227 200.7084 159.3491 15.12909766 63623
XW-3 (CAS-9)            
1 50466U 21131B   22146.48174862  .00000452  00000+0  16239-3 0  9998
2 50466  98.5793 223.7425 0004123 197.0022 222.2854 14.38493733 21755
TEVEL-3                 
1 50988U 22002E   22146.96254950  .00011577  00000+0  63705-3 0  9995
2 50988  97.4814 214.3072 0010715 133.5148 352.0769 15.14159066 20162
TEVEL-8                 
1 50989U 22002F   22146.97550190  .00011467  00000+0  63196-3 0  9994
2 50989  97.4824 214.3332 0010831 133.5875  38.6921 15.14107102 20160
TEVEL-5                 
1 50998U 22002Q   22146.93298713  .00012327  00000+0  66881-3 0  9990
2 50998  97.4805 214.3532 0012660 130.3656  44.4880 15.14627211 20162
TEVEL-6                 
1 50999U 22002R   22146.93271292  .00012170  00000+0  66038-3 0  9994
2 50999  97.4808 214.3528 0012502 131.2005  43.6990 15.14629668 20165
TEVEL-1                 
1 51013U 22002AF  22146.97353861  .00011395  00000+0  62760-3 0  9995
2 51013  97.4802 214.3039 0010583 134.7074  40.5679 15.14134522 20165
TEVEL-7                 
1 51062U 22002CG  22146.97714726  .00011490  00000+0  63346-3 0  9997
2 51062  97.4821 214.3250 0010519 132.5651  42.3994 15.14096802 20169
TEVEL-4                 
1 51063U 22002CH  22146.97754745  .00011443  00000+0  63102-3 0  9991
2 51063  97.4822 214.3243 0010582 133.3015  41.8645 15.14089542 20166
TEVEL-2                 
1 51069U 22002CP  22146.97248178  .00011369  00000+0  62589-3 0  9990
2 51069  97.4801 214.3058 0010496 133.0845  41.7537 15.14149408 20162
